{
  "type": "FeatureCollection",
  "features": [
    {
      "type": "Feature",
      "geometry": {
        "type": "Point",
        "coordinates": [
          -122.3,
          47.6
        ]
      },
      "properties": {
        "radio": "LTE",
        "samples": 100
      }
    },
    {
      "type": "Feature",
      "geometry": {
        "type": "Point",
        "coordinates": [
          -122.4,
          37.7
        ]
      },
      "properties": {
        "radio": "LTE",
        "samples": 101
      }
    },
    {
      "type": "Feature",
      "geometry": {
        "type": "Point",
        "coordinates": [
          -118.24,
          34.05
        ]
      },
      "properties": {
        "radio": "LTE",
        "samples": 102
      }
    },
    {
      "type": "Feature",
      "geometry": {
        "type": "Point",
        "coordinates": [
          -104.98,
          39.74
        ]
      },
      "properties": {
        "radio": "LTE",
        "samples": 103
      }
    },
    {
      "type": "Feature",
      "geometry": {
        "type": "Point",
        "coordinates": [
          -87.63,
          41.88
        ]
      },
      "properties": {
        "radio": "LTE",
        "samples": 104
      }
    },
    {
      "type": "Feature",
      "geometry": {
        "type": "Point",
        "coordinates": [
          -95.37,
          29.76
        ]
      },
      "properties": {
        "radio": "LTE",
        "samples": 105
      }
    },
    {
      "type": "Feature",
      "geometry": {
        "type": "Point",
        "coordinates": [
          -112.07,
          33.45
        ]
      },
      "properties": {
        "radio": "LTE",
        "samples": 106
      }
    },
    {
      "type": "Feature",
      "geometry": {
        "type": "Point",
        "coordinates": [
          -80.19,
          25.77
        ]
      },
      "properties": {
        "radio": "LTE",
        "samples": 107
      }
    },
    {
      "type": "Feature",
      "geometry": {
        "type": "Point",
        "coordinates": [
          -74.01,
          40.71
        ]
      },
      "properties": {
        "radio": "LTE",
        "samples": 108
      }
    },
    {
      "type": "Feature",
      "geometry": {
        "type": "Point",
        "coordinates": [
          -122.33,
          47.61
        ]
      },
      "properties": {
        "radio": "LTE",
        "samples": 109
      }
    }
  ]
}